IRIDIUM 155             
1 43573U 18061E   20343.94043722  .00000041  00000-0  74672-5 0  9997
2 43573  86.3982 179.3275 0002540  92.8458 267.3029 14.34219694124369
IRIDIUM 154             
1 43574U 18061F   20344.06093784  .00000063  00000-0  15555-4 0  9993
2 43574  86.3984 179.3146 0001750  92.1298 268.0099 14.34218135124438
IRIDIUM 163             
1 43575U 18061G   20344.11168174  .00000023  00000-0  11341-5 0  9992
2 43575  86.3983 179.2704 0001910  72.1836 287.9569 14.34218028124412
IRIDIUM 156             
1 43576U 18061H   20344.08631939  .00000027  00000-0  27063-5 0  9995
2 43576  86.3984 179.2858 0002272  81.9866 278.1587 14.34217870124402
IRIDIUM 164             
1 43577U 18061J   20344.06728633  .00000031  00000-0  41535-5 0  9997
2 43577  86.3985 179.3036 0001760  87.3721 272.7676 14.34218759124444
IRIDIUM 159             
1 43578U 18061K   20344.10534035  .00000042  00000-0  79649-5 0  9993
2 43578  86.3983 179.2667 0001819  90.5116 269.6288 14.34217857124410
IRIDIUM 180             
1 43922U 19002A   20344.38391922  .00000120  00000-0  35966-4 0  9998
2 43922  86.3964 116.0333 0000936  92.4628 267.6674 14.34216338100109
IRIDIUM 176             
1 43923U 19002B   20344.37273088  .00000285  00000-0  41355-4 0  9991
2 43923  86.6099 116.0691 0002044  95.4494 264.6957 14.72258654102668
IRIDIUM 168             
1 43924U 19002C   20344.30781226  .00000115  00000-0  34133-4 0  9991
2 43924  86.3966 116.0853 0001746  98.4582 261.6812 14.34216150100037
IRIDIUM 173             
1 43925U 19002D   20344.36489218  .00000068  00000-0  17218-4 0  9996
2 43925  86.3962 116.0323 0001820  95.0821 265.0582 14.34215445100036
IRIDIUM 169             
1 43926U 19002E   20343.96961339  .00000011  00000-0 -31060-5 0  9992
2 43926  86.4228 147.7859 0006563 126.0946 234.0861 14.38606024100352
IRIDIUM 172             
1 43927U 19002F   20344.35855398  .00000118  00000-0  34956-4 0  9997
2 43927  86.3962 116.0367 0001716  95.3791 264.7600 14.34216420100030
IRIDIUM 175             
1 43928U 19002G   20344.36654638  .00000289  00000-0  41958-4 0  9992
2 43928  86.6082 115.9289 0002574  76.2649 283.8855 14.72258641102658
IRIDIUM 171             
1 43929U 19002H   20344.33951964  .00000123  00000-0  36942-4 0  9996
2 43929  86.3971 116.1269 0001770  99.3035 260.8361 14.34215942100027
IRIDIUM 170             
1 43930U 19002J   20344.37893503  .00000281  00000-0  40703-4 0  9991
2 43930  86.6098 116.0732 0002063  87.6555 272.4898 14.72255132102673
IRIDIUM 167             
1 43931U 19002K   20344.33318990  .00000123  00000-0  36888-4 0  9994
2 43931  86.3962 116.0519 0001142  98.7156 261.4169 14.34216808100022
